{
  "type": "FeatureCollection",
  "features": [
    {
      "type": "Feature",
      "properties": {
        "norad_id": 29816,
        "name": "FENGYUN 1C DEB",
        "group": "fengyun-1c-debris",
        "lat": 44.49987817661118,
        "lon": -168.84345831468073,
        "alt_km": 887.3104345345819,
        "timestamp": "2025-12-06T11:28:11.334143+00:00",
        "meta_object_name": "FENGYUN 1C DEB",
        "meta_object_id": "1999-025DJ",
        "meta_epoch": "2025-12-05T13:53:50.466048",
        "meta_mean_motion": 14.44193834,
        "meta_eccentricity": 0.02378454,
        "meta_inclination": 98.9928,
        "meta_ra_of_asc_node": 199.1584,
        "meta_arg_of_pericenter": 198.494,
        "meta_mean_anomaly": 217.5707,
        "meta_ephemeris_type": 0,
        "meta_classification_type": "U",
        "meta_norad_cat_id": 29816,
        "meta_element_set_no": 999,
        "meta_rev_at_epoch": 98084,
        "meta_bstar": 0.0020966256,
        "meta_mean_motion_dot": 0.00010127,
        "meta_mean_motion_ddot": 0,
        "tle_line1": "1 29816U 99025DJ  25339.57905632  .00010127  00000+0  20966-2 0  9995",
        "tle_line2": "2 29816  98.9928 199.1584 0237845 198.4940 217.5707 14.44193834980843"
      },
      "geometry": {
        "type": "Point",
        "coordinates": [
          -168.84345831468073,
          44.49987817661118
        ]
      }
    },
    {
      "type": "Feature",
      "properties": {
        "norad_id": 29817,
        "name": "FENGYUN 1C DEB",
        "group": "fengyun-1c-debris",
        "lat": -57.178147685064644,
        "lon": -16.559261405229815,
        "alt_km": 852.066821716905,
        "timestamp": "2025-12-06T11:28:11.334153+00:00",
        "meta_object_name": "FENGYUN 1C DEB",
        "meta_object_id": "1999-025DK",
        "meta_epoch": "2025-12-05T22:28:04.414080",
        "meta_mean_motion": 14.14239027,
        "meta_eccentricity": 0.00125939,
        "meta_inclination": 98.5571,
        "meta_ra_of_asc_node": 329.4224,
        "meta_arg_of_pericenter": 34.236,
        "meta_mean_anomaly": 31.1598,
        "meta_ephemeris_type": 0,
        "meta_classification_type": "U",
        "meta_norad_cat_id": 29817,
        "meta_element_set_no": 999,
        "meta_rev_at_epoch": 97299,
        "meta_bstar": 0.00052656179,
        "meta_mean_motion_dot": 9.64e-06,
        "meta_mean_motion_ddot": 0,
        "tle_line1": "1 29817U 99025DK  25339.93616220  .00000964  00000+0  52656-3 0  9998",
        "tle_line2": "2 29817  98.5571 329.4224 0012593  34.2360  31.1598 14.14239027972994"
      },
      "geometry": {
        "type": "Point",
        "coordinates": [
          -16.559261405229815,
          -57.178147685064644
        ]
      }
    },
    {
      "type": "Feature",
      "properties": {
        "norad_id": 29818,
        "name": "FENGYUN 1C DEB",
        "group": "fengyun-1c-debris",
        "lat": -73.38202919064713,
        "lon": 7.082128127730664,
        "alt_km": 955.9966114206127,
        "timestamp": "2025-12-06T11:28:11.334163+00:00",
        "meta_object_name": "FENGYUN 1C DEB",
        "meta_object_id": "1999-025DL",
        "meta_epoch": "2025-12-05T22:22:02.069760",
        "meta_mean_motion": 14.04495153,
        "meta_eccentricity": 0.01154824,
        "meta_inclination": 98.7219,
        "meta_ra_of_asc_node": 217.5114,
        "meta_arg_of_pericenter": 44.8509,
        "meta_mean_anomaly": 332.793,
        "meta_ephemeris_type": 0,
        "meta_classification_type": "U",
        "meta_norad_cat_id": 29818,
        "meta_element_set_no": 999,
        "meta_rev_at_epoch": 96714,
        "meta_bstar": 0.00030196597,
        "meta_mean_motion_dot": 4.7e-06,
        "meta_mean_motion_ddot": 0,
        "tle_line1": "1 29818U 99025DL  25339.93196840  .00000470  00000+0  30197-3 0  9998",
        "tle_line2": "2 29818  98.7219 217.5114 0115482  44.8509 332.7930 14.04495153967148"
      },
      "geometry": {
        "type": "Point",
        "coordinates": [
          7.082128127730664,
          -73.38202919064713
        ]
      }
    },
    {
      "type": "Feature",
      "properties": {
        "norad_id": 29819,
        "name": "FENGYUN 1C DEB",
        "group": "fengyun-1c-debris",
        "lat": 58.65501536001872,
        "lon": -50.13312661099301,
        "alt_km": 753.6291063813451,
        "timestamp": "2025-12-06T11:28:11.334173+00:00",
        "meta_object_name": "FENGYUN 1C DEB",
        "meta_object_id": "1999-025DM",
        "meta_epoch": "2025-12-05T21:45:43.600032",
        "meta_mean_motion": 14.02180685,
        "meta_eccentricity": 0.01915545,
        "meta_inclination": 98.7304,
        "meta_ra_of_asc_node": 323.932,
        "meta_arg_of_pericenter": 86.1187,
        "meta_mean_anomaly": 333.1124,
        "meta_ephemeris_type": 0,
        "meta_classification_type": "U",
        "meta_norad_cat_id": 29819,
        "meta_element_set_no": 999,
        "meta_rev_at_epoch": 96524,
        "meta_bstar": 0.00061393284,
        "meta_mean_motion_dot": 1.063e-05,
        "meta_mean_motion_ddot": 0,
        "tle_line1": "1 29819U 99025DM  25339.90675463  .00001063  00000+0  61393-3 0  9990",
        "tle_line2": "2 29819  98.7304 323.9320 0191554  86.1187 333.1124 14.02180685965248"
      },
      "geometry": {
        "type": "Point",
        "coordinates": [
          -50.13312661099301,
          58.65501536001872
        ]
      }
    },
    {
      "type": "Feature",
      "properties": {
        "norad_id": 29820,
        "name": "FENGYUN 1C DEB",
        "group": "fengyun-1c-debris",
        "lat": 30.439415049129856,
        "lon": -17.52203608279777,
        "alt_km": 920.1927492490595,
        "timestamp": "2025-12-06T11:28:11.334183+00:00",
        "meta_object_name": "FENGYUN 1C DEB",
        "meta_object_id": "1999-025DN",
        "meta_epoch": "2025-12-05T23:28:44.433120",
        "meta_mean_motion": 14.02587557,
        "meta_eccentricity": 0.00717543,
        "meta_inclination": 98.8316,
        "meta_ra_of_asc_node": 347.2353,
        "meta_arg_of_pericenter": 256.7769,
        "meta_mean_anomaly": 132.2536,
        "meta_ephemeris_type": 0,
        "meta_classification_type": "U",
        "meta_norad_cat_id": 29820,
        "meta_element_set_no": 999,
        "meta_rev_at_epoch": 96465,
        "meta_bstar": 0.00076198665,
        "meta_mean_motion_dot": 1.158e-05,
        "meta_mean_motion_ddot": 0,
        "tle_line1": "1 29820U 99025DN  25339.97829205  .00001158  00000+0  76199-3 0  9999",
        "tle_line2": "2 29820  98.8316 347.2353 0071754 256.7769 132.2536 14.02587557964657"
      },
      "geometry": {
        "type": "Point",
        "coordinates": [
          -17.52203608279777,
          30.439415049129856
        ]
      }
    },
    {
      "type": "Feature",
      "properties": {
        "norad_id": 29821,
        "name": "FENGYUN 1C DEB",
        "group": "fengyun-1c-debris",
        "lat": -71.17032855899032,
        "lon": -171.73756087635996,
        "alt_km": 969.1912816565291,
        "timestamp": "2025-12-06T11:28:11.334193+00:00",
        "meta_object_name": "FENGYUN 1C DEB",
        "meta_object_id": "1999-025DP",
        "meta_epoch": "2025-12-05T17:51:51.629184",
        "meta_mean_motion": 14.11016139,
        "meta_eccentricity": 0.03764341,
        "meta_inclination": 98.8745,
        "meta_ra_of_asc_node": 34.8049,
        "meta_arg_of_pericenter": 140.476,
        "meta_mean_anomaly": 344.6811,
        "meta_ephemeris_type": 0,
        "meta_classification_type": "U",
        "meta_norad_cat_id": 29821,
        "meta_element_set_no": 999,
        "meta_rev_at_epoch": 96412,
        "meta_bstar": 0.0017498962,
        "meta_mean_motion_dot": 6.095e-05,
        "meta_mean_motion_ddot": 0,
        "tle_line1": "1 29821U 99025DP  25339.74434756  .00006095  00000+0  17499-2 0  9990",
        "tle_line2": "2 29821  98.8745  34.8049 0376434 140.4760 344.6811 14.11016139964128"
      },
      "geometry": {
        "type": "Point",
        "coordinates": [
          -171.73756087635996,
          -71.17032855899032
        ]
      }
    },
    {
      "type": "Feature",
      "properties": {
        "norad_id": 29827,
        "name": "FENGYUN 1C DEB",
        "group": "fengyun-1c-debris",
        "lat": -6.894498201484573,
        "lon": -27.11647474711591,
        "alt_km": 805.6402878228037,
        "timestamp": "2025-12-06T11:28:11.334203+00:00",
        "meta_object_name": "FENGYUN 1C DEB",
        "meta_object_id": "1999-025DV",
        "meta_epoch": "2025-12-05T22:17:31.121952",
        "meta_mean_motion": 14.21670727,
        "meta_eccentricity": 0.00253486,
        "meta_inclination": 98.6017,
        "meta_ra_of_asc_node": 331.2997,
        "meta_arg_of_pericenter": 342.5168,
        "meta_mean_anomaly": 81.9748,
        "meta_ephemeris_type": 0,
        "meta_classification_type": "U",
        "meta_norad_cat_id": 29827,
        "meta_element_set_no": 999,
        "meta_rev_at_epoch": 97766,
        "meta_bstar": 0.00057987856,
        "meta_mean_motion_dot": 1.234e-05,
        "meta_mean_motion_ddot": 0,
        "tle_line1": "1 29827U 99025DV  25339.92883243  .00001234  00000+0  57988-3 0  9993",
        "tle_line2": "2 29827  98.6017 331.2997 0025348 342.5168  81.9748 14.21670727977665"
      },
      "geometry": {
        "type": "Point",
        "coordinates": [
          -27.11647474711591,
          -6.894498201484573
        ]
      }
    }
  ]
}